{
  "type": "FeatureCollection",
  "features": [
    {
      "type": "Feature",
      "properties": {
        "norad_id": 33887,
        "name": "IRIDIUM 33 DEB",
        "group": "iridium-33-debris",
        "lat": 0.12243815622869184,
        "lon": 177.24860227308093,
        "alt_km": 766.5021338501901,
        "timestamp": "2025-12-26T23:26:42.509111+00:00",
        "meta_object_name": "IRIDIUM 33 DEB",
        "meta_object_id": "1997-051BG",
        "meta_epoch": "2025-12-26T01:09:55.785312",
        "meta_mean_motion": 14.37232581,
        "meta_eccentricity": 0.00058983,
        "meta_inclination": 86.3044,
        "meta_ra_of_asc_node": 357.6564,
        "meta_arg_of_pericenter": 176.4648,
        "meta_mean_anomaly": 243.1701,
        "meta_ephemeris_type": 0,
        "meta_classification_type": "U",
        "meta_norad_cat_id": 33887,
        "meta_element_set_no": 999,
        "meta_rev_at_epoch": 88356,
        "meta_bstar": 0.00014545145,
        "meta_mean_motion_dot": 4.53e-06,
        "meta_mean_motion_ddot": 0,
        "tle_line1": "1 33887U 97051BG  25360.04856233  .00000453  00000+0  14545-3 0  9991",
        "tle_line2": "2 33887  86.3044 357.6564 0005898 176.4648 243.1701 14.37232581883562"
      },
      "geometry": {
        "type": "Point",
        "coordinates": [
          177.24860227308093,
          0.12243815622869184
        ]
      }
    },
    {
      "type": "Feature",
      "properties": {
        "norad_id": 33953,
        "name": "IRIDIUM 33 DEB",
        "group": "iridium-33-debris",
        "lat": -64.55149206169632,
        "lon": -124.76362096596523,
        "alt_km": 727.5011161069815,
        "timestamp": "2025-12-26T23:26:42.509121+00:00",
        "meta_object_name": "IRIDIUM 33 DEB",
        "meta_object_id": "1997-051BN",
        "meta_epoch": "2025-12-26T14:46:02.739936",
        "meta_mean_motion": 14.55451821,
        "meta_eccentricity": 0.0017451,
        "meta_inclination": 86.3834,
        "meta_ra_of_asc_node": 47.7557,
        "meta_arg_of_pericenter": 60.1468,
        "meta_mean_anomaly": 91.3298,
        "meta_ephemeris_type": 0,
        "meta_classification_type": "U",
        "meta_norad_cat_id": 33953,
        "meta_element_set_no": 999,
        "meta_rev_at_epoch": 88505,
        "meta_bstar": 0.0011159,
        "meta_mean_motion_dot": 4.881e-05,
        "meta_mean_motion_ddot": 0,
        "tle_line1": "1 33953U 97051BN  25360.61530949  .00004881  00000+0  11159-2 0  9997",
        "tle_line2": "2 33953  86.3834  47.7557 0017451  60.1468  91.3298 14.55451821885059"
      },
      "geometry": {
        "type": "Point",
        "coordinates": [
          -124.76362096596523,
          -64.55149206169632
        ]
      }
    },
    {
      "type": "Feature",
      "properties": {
        "norad_id": 33960,
        "name": "IRIDIUM 33 DEB",
        "group": "iridium-33-debris",
        "lat": 27.572471830909823,
        "lon": 100.83865488616914,
        "alt_km": 611.7288985579144,
        "timestamp": "2025-12-26T23:26:42.509130+00:00",
        "meta_object_name": "IRIDIUM 33 DEB",
        "meta_object_id": "1997-051BV",
        "meta_epoch": "2025-12-26T18:02:38.047200",
        "meta_mean_motion": 14.85907169,
        "meta_eccentricity": 0.0006948,
        "meta_inclination": 86.2535,
        "meta_ra_of_asc_node": 282.9057,
        "meta_arg_of_pericenter": 38.1734,
        "meta_mean_anomaly": 350.9448,
        "meta_ephemeris_type": 0,
        "meta_classification_type": "U",
        "meta_norad_cat_id": 33960,
        "meta_element_set_no": 999,
        "meta_rev_at_epoch": 89075,
        "meta_bstar": 0.0032088,
        "meta_mean_motion_dot": 0.00028087,
        "meta_mean_motion_ddot": 0,
        "tle_line1": "1 33960U 97051BV  25360.75182925  .00028087  00000+0  32088-2 0  9995",
        "tle_line2": "2 33960  86.2535 282.9057 0006948  38.1734 350.9448 14.85907169890750"
      },
      "geometry": {
        "type": "Point",
        "coordinates": [
          100.83865488616914,
          27.572471830909823
        ]
      }
    },
    {
      "type": "Feature",
      "properties": {
        "norad_id": 33966,
        "name": "IRIDIUM 33 DEB",
        "group": "iridium-33-debris",
        "lat": 75.00535867570909,
        "lon": 53.54505127445157,
        "alt_km": 717.486451850802,
        "timestamp": "2025-12-26T23:26:42.509139+00:00",
        "meta_object_name": "IRIDIUM 33 DEB",
        "meta_object_id": "1997-051CB",
        "meta_epoch": "2025-12-26T15:23:33.736416",
        "meta_mean_motion": 14.49646818,
        "meta_eccentricity": 0.0008881,
        "meta_inclination": 86.391,
        "meta_ra_of_asc_node": 40.0602,
        "meta_arg_of_pericenter": 145.5538,
        "meta_mean_anomaly": 340.1487,
        "meta_ephemeris_type": 0,
        "meta_classification_type": "U",
        "meta_norad_cat_id": 33966,
        "meta_element_set_no": 999,
        "meta_rev_at_epoch": 88643,
        "meta_bstar": 0.00051075,
        "meta_mean_motion_dot": 1.983e-05,
        "meta_mean_motion_ddot": 0,
        "tle_line1": "1 33966U 97051CB  25360.64136269  .00001983  00000+0  51075-3 0  9993",
        "tle_line2": "2 33966  86.3910  40.0602 0008881 145.5538 340.1487 14.49646818886431"
      },
      "geometry": {
        "type": "Point",
        "coordinates": [
          53.54505127445157,
          75.00535867570909
        ]
      }
    },
    {
      "type": "Feature",
      "properties": {
        "norad_id": 34071,
        "name": "IRIDIUM 33 DEB",
        "group": "iridium-33-debris",
        "lat": 44.18096193769453,
        "lon": -171.92209056834457,
        "alt_km": 720.7405190292802,
        "timestamp": "2025-12-26T23:26:42.509149+00:00",
        "meta_object_name": "IRIDIUM 33 DEB",
        "meta_object_id": "1997-051CE",
        "meta_epoch": "2025-12-26T17:51:07.795008",
        "meta_mean_motion": 14.49526568,
        "meta_eccentricity": 0.0009804,
        "meta_inclination": 86.3453,
        "meta_ra_of_asc_node": 11.7403,
        "meta_arg_of_pericenter": 70.1047,
        "meta_mean_anomaly": 290.1213,
        "meta_ephemeris_type": 0,
        "meta_classification_type": "U",
        "meta_norad_cat_id": 34071,
        "meta_element_set_no": 999,
        "meta_rev_at_epoch": 88537,
        "meta_bstar": 0.00064162,
        "meta_mean_motion_dot": 2.48e-05,
        "meta_mean_motion_ddot": 0,
        "tle_line1": "1 34071U 97051CE  25360.74384022  .00002480  00000+0  64162-3 0  9998",
        "tle_line2": "2 34071  86.3453  11.7403 0009804  70.1047 290.1213 14.49526568885371"
      },
      "geometry": {
        "type": "Point",
        "coordinates": [
          -171.92209056834457,
          44.18096193769453
        ]
      }
    },
    {
      "type": "Feature",
      "properties": {
        "norad_id": 34077,
        "name": "IRIDIUM 33 DEB",
        "group": "iridium-33-debris",
        "lat": 47.09099078811893,
        "lon": 49.13407483491409,
        "alt_km": 669.468068754446,
        "timestamp": "2025-12-26T23:26:42.509158+00:00",
        "meta_object_name": "IRIDIUM 33 DEB",
        "meta_object_id": "1997-051CL",
        "meta_epoch": "2025-12-26T15:37:29.746272",
        "meta_mean_motion": 14.65017306,
        "meta_eccentricity": 0.0008586,
        "meta_inclination": 86.3849,
        "meta_ra_of_asc_node": 45.3778,
        "meta_arg_of_pericenter": 353.3839,
        "meta_mean_anomaly": 136.4278,
        "meta_ephemeris_type": 0,
        "meta_classification_type": "U",
        "meta_norad_cat_id": 34077,
        "meta_element_set_no": 999,
        "meta_rev_at_epoch": 88536,
        "meta_bstar": 0.0015938,
        "meta_mean_motion_dot": 8.57e-05,
        "meta_mean_motion_ddot": 0,
        "tle_line1": "1 34077U 97051CL  25360.65103873  .00008570  00000+0  15938-2 0  9999",
        "tle_line2": "2 34077  86.3849  45.3778 0008586 353.3839 136.4278 14.65017306885360"
      },
      "geometry": {
        "type": "Point",
        "coordinates": [
          49.13407483491409,
          47.09099078811893
        ]
      }
    },
    {
      "type": "Feature",
      "properties": {
        "norad_id": 34079,
        "name": "IRIDIUM 33 DEB",
        "group": "iridium-33-debris",
        "lat": -78.80148686083217,
        "lon": -16.47584396582989,
        "alt_km": 622.161332831075,
        "timestamp": "2025-12-26T23:26:42.509167+00:00",
        "meta_object_name": "IRIDIUM 33 DEB",
        "meta_object_id": "1997-051CN",
        "meta_epoch": "2025-12-26T18:07:27.996096",
        "meta_mean_motion": 14.83912945,
        "meta_eccentricity": 0.000379,
        "meta_inclination": 86.3778,
        "meta_ra_of_asc_node": 2.2859,
        "meta_arg_of_pericenter": 313.1989,
        "meta_mean_anomaly": 223.9138,
        "meta_ephemeris_type": 0,
        "meta_classification_type": "U",
        "meta_norad_cat_id": 34079,
        "meta_element_set_no": 999,
        "meta_rev_at_epoch": 89185,
        "meta_bstar": 0.0020562,
        "meta_mean_motion_dot": 0.00017127,
        "meta_mean_motion_ddot": 0,
        "tle_line1": "1 34079U 97051CN  25360.75518514  .00017127  00000+0  20562-2 0  9991",
        "tle_line2": "2 34079  86.3778   2.2859 0003790 313.1989 223.9138 14.83912945891858"
      },
      "geometry": {
        "type": "Point",
        "coordinates": [
          -16.47584396582989,
          -78.80148686083217
        ]
      }
    }
  ]
}